// 데모용 TLE 세트. 프로덕션은 CelesTrak GP API에서 매일 수집(설계서 §7.5 get_tle).
// 아래 요소는 시연용으로 오래될 수 있음 — SGP4 전파는 정상 동작.

export type SatDef = {
  noradId: number;
  name: string;
  tle1: string;
  tle2: string;
  color: [number, number, number]; // RGB
  kind: "payload" | "tracked" | "debris";
};

export const SATELLITES: SatDef[] = [
  {
    noradId: 25544,
    name: "ISS (ZARYA)",
    tle1: "1 25544U 98067A   24187.45789227  .00016717  00000+0  30074-3 0  9993",
    tle2: "2 25544  51.6416 121.2333 0009035  99.8340 260.3893 15.50022067    05",
    color: [255, 183, 77], // amber = tracked
    kind: "tracked",
  },
  {
    // STARLINK-1007(44713)에서 교체 — 그 위성은 2024-10-02 대기권 재진입(SATCAT DECAY).
    // 소멸한 객체는 권위 카탈로그도 재진입 시점의 마지막 원소만 주므로 영구히 655일+ 낡은
    // 상태였다. 3120은 고도 ~494km 정상 운용 중.
    noradId: 49419,
    name: "STARLINK-3120",
    tle1: "1 49419U 21082Z   24187.50000000  .00001234  00000+0  10000-3 0  9990",
    tle2: "2 49419  53.1628 200.0000 0001300  90.0000 270.0000 15.09000000    05",
    color: [92, 225, 255], // cyan
    kind: "payload",
  },
  {
    noradId: 40536,
    name: "KOMPSAT-3A",
    tle1: "1 40536U 15011A   24187.50000000  .00000500  00000+0  20000-4 0  9990",
    tle2: "2 40536  97.5000 250.0000 0010000  90.0000 270.0000 14.82000000    05",
    color: [143, 180, 232], // ice blue (SSO)
    kind: "payload",
  },
  {
    // 천리안위성 2A호 (Space-Track 카탈로그명: GEO-KOMPSAT-2A).
    // 정지궤도 128.2°E — 한반도를 항상 응시한다. 기상청 위성자료 API의 관측 주체.
    noradId: 43823,
    name: "GK2A (천리안2A)",
    tle1: "1 43823U 18100A   24187.50000000 -.00000100  00000+0  00000+0 0  9990",
    tle2: "2 43823   0.0300  90.0000 0001000   0.0000   0.0000  1.00270000    05",
    color: [255, 122, 51], // 주황 — 한국 위성
    kind: "payload",
  },
  {
    noradId: 33591,
    name: "NOAA-19",
    tle1: "1 33591U 09005A   24187.50000000  .00000100  00000+0  80000-4 0  9990",
    tle2: "2 33591  99.1900 200.0000 0013000  90.0000 270.0000 14.13000000    05",
    color: [143, 180, 232],
    kind: "payload",
  },
];
